[{"OBJECT_NAME":"STARLINK-1114","OBJECT_ID":"2020-001P","EPOCH":"2026-03-09T22:29:13.634304","MEAN_MOTION":15.50335733,"ECCENTRICITY":0.00083622,"INCLINATION":53.05,"RA_OF_ASC_NODE":328.1784,"ARG_OF_PERICENTER":120.9546,"MEAN_ANOMALY":239.2285,"EPHEMERIS_TYPE":0,"CLASSIFICATION_TYPE":"U","NORAD_CAT_ID":44927,"ELEMENT_SET_NO":999,"REV_AT_EPOCH":34013,"BSTAR":0.0018611875,"MEAN_MOTION_DOT":0.00108516,"MEAN_MOTION_DDOT":0},{"OBJECT_NAME":"STARLINK-1364","OBJECT_ID":"2020-025BL","EPOCH":"2026-03-09T22:42:39.507840","MEAN_MOTION":15.49541195,"ECCENTRICITY":0.00079481,"INCLINATION":53.0507,"RA_OF_ASC_NODE":61.9794,"ARG_OF_PERICENTER":58.2992,"MEAN_ANOMALY":301.8789,"EPHEMERIS_TYPE":0,"CLASSIFICATION_TYPE":"U","NORAD_CAT_ID":45589,"ELEMENT_SET_NO":999,"REV_AT_EPOCH":32573,"BSTAR":0.001962035,"MEAN_MOTION_DOT":0.00111268,"MEAN_MOTION_DDOT":0}]
